start=new Date('2021-09-09T00:00:00.000Z').valueOf();
sats=[{"TIME_SYSTEM":"UTC","EPOCH":"2021-09-08T20:31:58.988640","OBJECT_NAME":"STARLINK-2160","BSTAR":"-0.00003630200000","TLE_LINE1":"1 47746U 21017AA  21251.85554385 -.00000822  00000-0 -36302-4 0  9995","RCS_SIZE":"LARGE","EPHEMERIS_TYPE":"0","RA_OF_ASC_NODE":"26.5740","CENTER_NAME":"EARTH","FILE":"3111252","ARG_OF_PERICENTER":"99.4321","REF_FRAME":"TEME","PERIOD":"95.593","ELEMENT_SET_NO":"999","INCLINATION":"53.0562","OBJECT_ID":"2021-017AA","ECCENTRICITY":"0.00014010","GP_ID":"184348051","COUNTRY_CODE":"US","NORAD_CAT_ID":"47746","APOAPSIS":"548.209","DECAY_DATE":null,"MEAN_ELEMENT_THEORY":"SGP4","LAUNCH_DATE":"2021-03-04","MEAN_MOTION":"15.06391629","MEAN_ANOMALY":"260.6826","REV_AT_EPOCH":"3010","SEMIMAJOR_AXIS":"6925.374","CLASSIFICATION_TYPE":"U","OBJECT_TYPE":"PAYLOAD","PERIAPSIS":"546.269","MEAN_MOTION_DOT":"-0.00000822","TLE_LINE2":"2 47746  53.0562  26.5740 0001401  99.4321 260.6826 15.06391629 30105","SITE":"AFETR","MEAN_MOTION_DDOT":"0.0000000000000"},{"ECCENTRICITY":"0.00013670","GP_ID":"184348301","OBJECT_ID":"2021-017AB","MEAN_ELEMENT_THEORY":"SGP4","DECAY_DATE":null,"NORAD_CAT_ID":"47747","APOAPSIS":"548.169","COUNTRY_CODE":"US","LAUNCH_DATE":"2021-03-04","MEAN_ANOMALY":"236.5426","MEAN_MOTION":"15.06397224","CLASSIFICATION_TYPE":"U","SEMIMAJOR_AXIS":"6925.357","REV_AT_EPOCH":"3028","PERIAPSIS":"546.275","OBJECT_TYPE":"PAYLOAD","MEAN_MOTION_DDOT":"0.0000000000000","TLE_LINE2":"2 47747  53.0583  16.5916 0001367 123.5694 236.5426 15.06397224 30280","MEAN_MOTION_DOT":"-0.00000234","SITE":"AFETR","OBJECT_NAME":"STARLINK-2161","EPOCH":"2021-09-08T20:27:59.783328","TIME_SYSTEM":"UTC","RCS_SIZE":"LARGE","TLE_LINE1":"1 47747U 21017AB  21251.85277527 -.00000234  00000-0  31977-5 0  9996","BSTAR":"0.00000319770000","EPHEMERIS_TYPE":"0","CENTER_NAME":"EARTH","RA_OF_ASC_NODE":"16.5916","ARG_OF_PERICENTER":"123.5694","FILE":"3111252","REF_FRAME":"TEME","INCLINATION":"53.0583","ELEMENT_SET_NO":"999","PERIOD":"95.592"},{"CLASSIFICATION_TYPE":"U","SEMIMAJOR_AXIS":"6925.340","REV_AT_EPOCH":"3024","PERIAPSIS":"546.207","OBJECT_TYPE":"PAYLOAD","MEAN_MOTION_DDOT":"0.0000000000000","TLE_LINE2":"2 47748  53.0582  16.9230 0001441 123.4445 236.6682 15.06402925 30245","SITE":"AFETR","MEAN_MOTION_DOT":"0.00000001","GP_ID":"184348552","ECCENTRICITY":"0.00014410","OBJECT_ID":"2021-017AC","DECAY_DATE":null,"MEAN_ELEMENT_THEORY":"SGP4","NORAD_CAT_ID":"47748","APOAPSIS":"548.203","COUNTRY_CODE":"US","LAUNCH_DATE":"2021-03-04","MEAN_ANOMALY":"236.6682","MEAN_MOTION":"15.06402925","CENTER_NAME":"EARTH","RA_OF_ASC_NODE":"16.9230","ARG_OF_PERICENTER":"123.4445","FILE":"3111252","REF_FRAME":"TEME","INCLINATION":"53.0582","ELEMENT_SET_NO":"999","PERIOD":"95.592","OBJECT_NAME":"STARLINK-2162","EPOCH":"2021-09-08T18:41:50.214624","TIME_SYSTEM":"UTC","TLE_LINE1":"1 47748U 21017AC  21251.77905341  .00000001  00000-0  18934-4 0  9998","RCS_SIZE":"LARGE","BSTAR":"0.00001893400000","EPHEMERIS_TYPE":"0"},{"TIME_SYSTEM":"UTC","EPOCH":"2021-09-08T17:27:32.722848","OBJECT_NAME":"STARLINK-2163","TLE_LINE1":"1 47749U 21017AD  21251.72746207 -.00000596  00000-0 -21147-4 0  9999","BSTAR":"-0.00002114700000","RCS_SIZE":"LARGE","EPHEMERIS_TYPE":"0","CENTER_NAME":"EARTH","RA_OF_ASC_NODE":"17.1460","FILE":"3111252","ARG_OF_PERICENTER":"116.2952","REF_FRAME":"TEME","PERIOD":"95.593","ELEMENT_SET_NO":"999","INCLINATION":"53.0567","OBJECT_ID":"2021-017AD","ECCENTRICITY":"0.00012770","GP_ID":"184349303","COUNTRY_CODE":"US","APOAPSIS":"548.118","NORAD_CAT_ID":"47749","DECAY_DATE":null,"MEAN_ELEMENT_THEORY":"SGP4","LAUNCH_DATE":"2021-03-04","MEAN_MOTION":"15.06393429","MEAN_ANOMALY":"243.8168","REV_AT_EPOCH":"3023","SEMIMAJOR_AXIS":"6925.369","CLASSIFICATION_TYPE":"U","OBJECT_TYPE":"PAYLOAD","PERIAPSIS":"546.349","TLE_LINE2":"2 47749  53.0567  17.1460 0001277 116.2952 243.8168 15.06393429 30233","MEAN_MOTION_DOT":"-0.00000596","SITE":"AFETR","MEAN_MOTION_DDOT":"0.0000000000000"},{"TLE_LINE1":"1 47750U 21017AE  21251.83803182  .00000423  00000-0  47277-4 0  9998","RCS_SIZE":"LARGE","BSTAR":"0.00004727700000","EPHEMERIS_TYPE":"0","TIME_SYSTEM":"UTC","EPOCH":"2021-09-08T20:06:45.949248","OBJECT_NAME":"STARLINK-2164","REF_FRAME":"TEME","PERIOD":"95.593","ELEMENT_SET_NO":"999","INCLINATION":"53.0579","CENTER_NAME":"EARTH","RA_OF_ASC_NODE":"16.6562","FILE":"3111252","ARG_OF_PERICENTER":"119.6065","LAUNCH_DATE":"2021-03-04","MEAN_MOTION":"15.06390659","MEAN_ANOMALY":"240.5053","OBJECT_ID":"2021-017AE","ECCENTRICITY":"0.00012950","GP_ID":"184347551","COUNTRY_CODE":"US","NORAD_CAT_ID":"47750","APOAPSIS":"548.139","DECAY_DATE":null,"MEAN_ELEMENT_THEORY":"SGP4","OBJECT_TYPE":"PAYLOAD","PERIAPSIS":"546.345","SITE":"AFETR","TLE_LINE2":"2 47750  53.0579  16.6562 0001295 119.6065 240.5053 15.06390659 30258","MEAN_MOTION_DOT":"0.00000423","MEAN_MOTION_DDOT":"0.0000000000000","REV_AT_EPOCH":"3025","SEMIMAJOR_AXIS":"6925.377","CLASSIFICATION_TYPE":"U"},{"REV_AT_EPOCH":"3039","SEMIMAJOR_AXIS":"6925.342","CLASSIFICATION_TYPE":"U","SITE":"AFETR","TLE_LINE2":"2 47751  53.0450   6.8582 0001179  94.5408 265.5715 15.06401996 30397","MEAN_MOTION_DOT":"0.00000087","MEAN_MOTION_DDOT":"0.0000000000000","OBJECT_TYPE":"PAYLOAD","PERIAPSIS":"546.391","COUNTRY_CODE":"US","NORAD_CAT_ID":"47751","APOAPSIS":"548.024","DECAY_DATE":null,"MEAN_ELEMENT_THEORY":"SGP4","OBJECT_ID":"2021-017AF","ECCENTRICITY":"0.00011790","GP_ID":"184347801","MEAN_MOTION":"15.06401996","MEAN_ANOMALY":"265.5715","LAUNCH_DATE":"2021-03-04","FILE":"3111252","ARG_OF_PERICENTER":"94.5408","RA_OF_ASC_NODE":"6.8582","CENTER_NAME":"EARTH","PERIOD":"95.592","ELEMENT_SET_NO":"999","INCLINATION":"53.0450","REF_FRAME":"TEME","TIME_SYSTEM":"UTC","EPOCH":"2021-09-08T19:15:00.259776","OBJECT_NAME":"STARLINK-2168","EPHEMERIS_TYPE":"0","TLE_LINE1":"1 47751U 21017AF  21251.80208634  .00000087  00000-0  24721-4 0  9992","BSTAR":"0.00002472100000","RCS_SIZE":"LARGE"},{"PERIOD":"95.592","ELEMENT_SET_NO":"999","INCLINATION":"53.0585","REF_FRAME":"TEME","FILE":"3111252","ARG_OF_PERICENTER":"109.8744","RA_OF_ASC_NODE":"21.6694","CENTER_NAME":"EARTH","EPHEMERIS_TYPE":"0","RCS_SIZE":"LARGE","TLE_LINE1":"1 47752U 21017AG  21251.83573036 -.00000402  00000-0 -80682-5 0  9999","BSTAR":"-0.00000806820000","TIME_SYSTEM":"UTC","EPOCH":"2021-09-08T20:03:27.103104","OBJECT_NAME":"STARLINK-2169","MEAN_MOTION_DOT":"-0.00000402","TLE_LINE2":"2 47752  53.0585  21.6694 0001510 109.8744 250.2408 15.06397028 30231","SITE":"AFETR","MEAN_MOTION_DDOT":"0.0000000000000","OBJECT_TYPE":"PAYLOAD","PERIAPSIS":"546.177","REV_AT_EPOCH":"3023","CLASSIFICATION_TYPE":"U","SEMIMAJOR_AXIS":"6925.358","MEAN_MOTION":"15.06397028","MEAN_ANOMALY":"250.2408","LAUNCH_DATE":"2021-03-04","COUNTRY_CODE":"US","NORAD_CAT_ID":"47752","APOAPSIS":"548.268","DECAY_DATE":null,"MEAN_ELEMENT_THEORY":"SGP4","OBJECT_ID":"2021-017AG","ECCENTRICITY":"0.00015100","GP_ID":"184349053"},{"PERIOD":"95.592","ELEMENT_SET_NO":"999","INCLINATION":"53.0548","REF_FRAME":"TEME","FILE":"3111252","ARG_OF_PERICENTER":"98.1512","CENTER_NAME":"EARTH","RA_OF_ASC_NODE":"26.4761","EPHEMERIS_TYPE":"0","TLE_LINE1":"1 47753U 21017AH  21251.87765856 -.00000389  00000-0 -71989-5 0  9991","BSTAR":"-0.00000719890000","RCS_SIZE":"LARGE","TIME_SYSTEM":"UTC","EPOCH":"2021-09-08T21:03:49.699584","OBJECT_NAME":"STARLINK-2170","TLE_LINE2":"2 47753  53.0548  26.4761 0001322  98.1512 261.9627 15.06400909 30160","SITE":"AFETR","MEAN_MOTION_DOT":"-0.00000389","MEAN_MOTION_DDOT":"0.0000000000000","OBJECT_TYPE":"PAYLOAD","PERIAPSIS":"546.295","REV_AT_EPOCH":"3016","SEMIMAJOR_AXIS":"6925.346","CLASSIFICATION_TYPE":"U","MEAN_MOTION":"15.06400909","MEAN_ANOMALY":"261.9627","LAUNCH_DATE":"2021-03-04","COUNTRY_CODE":"US","NORAD_CAT_ID":"47753","APOAPSIS":"548.126","DECAY_DATE":null,"MEAN_ELEMENT_THEORY":"SGP4","OBJECT_ID":"2021-017AH","GP_ID":"184348803","ECCENTRICITY":"0.00013220"},{"TIME_SYSTEM":"UTC","OBJECT_NAME":"STARLINK-2171","EPOCH":"2021-09-08T18:45:49.466592","TLE_LINE1":"1 47754U 21017AJ  21251.78182253 -.00000655  00000-0 -25060-4 0  9990","BSTAR":"-0.00002506000000","RCS_SIZE":"LARGE","EPHEMERIS_TYPE":"0","CENTER_NAME":"EARTH","RA_OF_ASC_NODE":"26.9092","ARG_OF_PERICENTER":"100.1730","FILE":"3111252","REF_FRAME":"TEME","ELEMENT_SET_NO":"999","PERIOD":"95.592","INCLINATION":"53.0572","OBJECT_ID":"2021-017AJ","GP_ID":"184348052","ECCENTRICITY":"0.00018380","COUNTRY_CODE":"US","DECAY_DATE":null,"MEAN_ELEMENT_THEORY":"SGP4","APOAPSIS":"548.483","NORAD_CAT_ID":"47754","LAUNCH_DATE":"2021-03-04","MEAN_MOTION":"15.06400990","MEAN_ANOMALY":"259.9466","CLASSIFICATION_TYPE":"U","SEMIMAJOR_AXIS":"6925.346","REV_AT_EPOCH":"3011","OBJECT_TYPE":"PAYLOAD","PERIAPSIS":"545.938","MEAN_MOTION_DDOT":"0.0000000000000","MEAN_MOTION_DOT":"-0.00000655","TLE_LINE2":"2 47754  53.0572  26.9092 0001838 100.1730 259.9466 15.06400990 30111","SITE":"AFETR"},{"OBJECT_NAME":"STARLINK-2172","EPOCH":"2021-09-08T20:02:04.858080","TIME_SYSTEM":"UTC","TLE_LINE1":"1 47755U 21017AK  21251.83477845 -.00000120  00000-0  10866-4 0  9995","RCS_SIZE":"LARGE","BSTAR":"0.00001086600000","EPHEMERIS_TYPE":"0","RA_OF_ASC_NODE":"21.6742","CENTER_NAME":"EARTH","ARG_OF_PERICENTER":"130.1626","FILE":"3111252","REF_FRAME":"TEME","INCLINATION":"53.0587","ELEMENT_SET_NO":"999","PERIOD":"95.591","ECCENTRICITY":"0.00012810","GP_ID":"184348302","OBJECT_ID":"2021-017AK","DECAY_DATE":null,"MEAN_ELEMENT_THEORY":"SGP4","APOAPSIS":"548.063","NORAD_CAT_ID":"47755","COUNTRY_CODE":"US","LAUNCH_DATE":"2021-03-04","MEAN_ANOMALY":"229.9475","MEAN_MOTION":"15.06412383","SEMIMAJOR_AXIS":"6925.311","CLASSIFICATION_TYPE":"U","REV_AT_EPOCH":"3018","PERIAPSIS":"546.288","OBJECT_TYPE":"PAYLOAD","MEAN_MOTION_DDOT":"0.0000000000000","MEAN_MOTION_DOT":"-0.00000120","TLE_LINE2":"2 47755  53.0587  21.6742 0001281 130.1626 229.9475 15.06412383 30184","SITE":"AFETR"}];
